AEROCUBE 6B             
1 40046U 14033AN  26068.42625992  .00007941  00000+0  66368-3 0  9998
2 40046  97.7129 236.1645 0037452 343.2300  16.7681 14.98232474631816
CAPELLA-18 (ACADIA-8)   
1 67385U 26004Y   26068.95749613  .00007317  00000+0  78930-3 0  9994
2 67385  97.8018  69.2213 0005733  86.7741 273.4132 14.88674118  8534
