[{"OBJECT_NAME":"AEROCUBE 6B","OBJECT_ID":"2014-033AN","EPOCH":"2026-03-09T10:13:48.857088","MEAN_MOTION":14.98232474,"ECCENTRICITY":0.00374529,"INCLINATION":97.7129,"RA_OF_ASC_NODE":236.1645,"ARG_OF_PERICENTER":343.23,"MEAN_ANOMALY":16.7681,"EPHEMERIS_TYPE":0,"CLASSIFICATION_TYPE":"U","NORAD_CAT_ID":40046,"ELEMENT_SET_NO":999,"REV_AT_EPOCH":63181,"BSTAR":0.00066368498,"MEAN_MOTION_DOT":7.941e-5,"MEAN_MOTION_DDOT":0},{"OBJECT_NAME":"CAPELLA-18 (ACADIA-8)","OBJECT_ID":"2026-004Y","EPOCH":"2026-03-09T22:58:47.667360","MEAN_MOTION":14.88674118,"ECCENTRICITY":0.00057329,"INCLINATION":97.8018,"RA_OF_ASC_NODE":69.2213,"ARG_OF_PERICENTER":86.7741,"MEAN_ANOMALY":273.4132,"EPHEMERIS_TYPE":0,"CLASSIFICATION_TYPE":"U","NORAD_CAT_ID":67385,"ELEMENT_SET_NO":999,"REV_AT_EPOCH":853,"BSTAR":0.00078929607,"MEAN_MOTION_DOT":7.317e-5,"MEAN_MOTION_DDOT":0}]
